ONEWEB-0309             
1 49095U 21075W   23308.43374882  .00000017  00000+0  99410-5 0  9992
2 49095  87.9240 195.8271 0001145  93.5217 266.6045 13.17650764107715
ONEWEB-0310             
1 49096U 21075X   23308.60316641 -.00000492  00000+0 -14020-2 0  9991
2 49096  87.9050 180.6904 0001315  78.2817 281.8459 13.12443001109848
ONEWEB-0311             
1 49097U 21075Y   23308.59195773  .00000047  00000+0  88726-4 0  9991
2 49097  87.9176 195.7956 0001995  86.9954 273.1405 13.17648990107789
ONEWEB-0312             
1 49098U 21075Z   23308.45272813  .00000005  00000+0 -21376-4 0  9991
2 49098  87.9256 195.8463 0001540  95.1334 264.9973 13.17652198107742
ONEWEB-0313             
1 49099U 21075AA  23308.43164903 -.00000006  00000+0 -49721-4 0  9996
2 49099  87.9240 195.8623 0001641  89.0768 271.0552 13.17648627107732
ONEWEB-0314             
1 49100U 21075AB  23308.42531924  .00000038  00000+0  63565-4 0  9994
2 49100  87.9243 195.8262 0001654  96.9968 263.1352 13.17647593107708
ONEWEB-0315             
1 49101U 21075AC  23308.57657987  .00032014  00000+0  88908-1 0  9993
2 49101  87.9039 180.7040 0001875  70.0432 290.0898 13.12239987109821
ONEWEB-0316             
1 49102U 21075AD  23308.57030629  .00000137  00000+0  31572-3 0  9990
2 49102  87.9170 165.5690 0002068  84.7669 275.3699 13.18684732111263
